     2              NAVIGATION DATA                         RINEX VERSION / TYPE
fephVoteF_trial     Stanford GPS Lab    2016-06-20 15:26:25 PGM / RUN BY / DATE 
                                                            END OF HEADER       
26 16  1  1 23 59 44.0 -1.924377866089E-04 -1.705302565824E-11  0.000000000000E+00
     2.000000000000E+00 -8.375000000000E+00  4.465185992919E-09  9.595034540731E-01
    -4.041939973831E-07  6.318268133327E-04  7.368624210358E-06  5.153691390991E+03
     5.183840000000E+05 -9.313225746155E-09 -1.636484861020E+00 -2.048909664154E-08
     9.604772235488E-01  2.335000000000E+02 -2.752074757475E-01 -8.102123200238E-09
    -1.157191058795E-10  1.000000000000E+00  1.877000000000E+03  0.000000000000E+00
     2.400000000000E+00  0.000000000000E+00  7.450580596924E-09  2.000000000000E+00
     5.141700000000E+05  4.000000000000E+00  1.969000000000E+03  1.969000000000E+03
27 16  1  1  0  0  0.0  4.933122545481E-05  3.410605131648E-12  0.000000000000E+00
     8.800000000000E+01 -9.593750000000E+00  4.356967199458E-09 -1.131666764886E+00
    -4.582107067108E-07  2.929348498583E-03  5.377456545830E-06  5.153712829590E+03
     4.320000000000E+05  2.980232238770E-08 -5.866816913159E-01 -5.029141902924E-08
     9.698891761887E-01  2.824687500000E+02  2.327462346092E-01 -8.114623720935E-09
     8.036049019412E-11  1.000000000000E+00  1.877000000000E+03  0.000000000000E+00
     3.400000000000E+00  0.000000000000E+00  1.862645149231E-09  8.800000000000E+01
     4.248000000000E+05  4.000000000000E+00  3.740000000000E+02  3.740000000000E+02
27 16  1  1  1 59 44.0  4.935590550303E-05  3.410605131648E-12  0.000000000000E+00
     0.000000000000E+00 -9.062500000000E+00  4.473043463072E-09 -8.388007999916E-02
    -5.830079317093E-07  2.929045353085E-03  5.302950739861E-06  5.153712247849E+03
     4.391840000000E+05  3.725290298462E-09 -5.867400705248E-01  3.725290298462E-08
     9.698893210176E-01  2.798750000000E+02  2.327819532170E-01 -8.192484106990E-09
     5.178787145843E-11  1.000000000000E+00  1.877000000000E+03  0.000000000000E+00
     2.400000000000E+00  0.000000000000E+00  1.862645149231E-09  0.000000000000E+00
     4.337100000000E+05  4.000000000000E+00  1.313000000000E+03  1.313000000000E+03
27 16  1  1  2  0  0.0  4.935590550303E-05  3.410605131648E-12  0.000000000000E+00
     8.900000000000E+01 -9.062500000000E+00  4.473043463072E-09 -8.154530516928E-02
    -5.830079317093E-07  2.929037669674E-03  5.302950739861E-06  5.153712238312E+03
     4.392000000000E+05  3.725290298462E-09 -5.867401963357E-01  3.725290298462E-08
     9.698893137030E-01  2.798750000000E+02  2.327809306373E-01 -8.192484106990E-09
     5.178787145843E-11  1.000000000000E+00  1.877000000000E+03  0.000000000000E+00
     3.400000000000E+00  0.000000000000E+00  1.862645149231E-09  8.900000000000E+01
     4.320000000000E+05  4.000000000000E+00  2.290000000000E+02  2.290000000000E+02
27 16  1  1  3 59 44.0  4.938011988997E-05  3.410605131648E-12  0.000000000000E+00
     5.000000000000E+00 -5.656250000000E+00  4.543403536708E-09  9.661865305300E-01
    -1.788139343262E-07  2.929413341917E-03  5.258247256279E-06  5.153713088989E+03
     4.463840000000E+05  5.587935447693E-08 -5.867994094079E-01 -1.490116119385E-08
     9.698896545629E-01  2.793750000000E+02  2.328725809920E-01 -8.234985877359E-09
     8.714648714384E-11  1.000000000000E+00  1.877000000000E+03  0.000000000000E+00
     2.400000000000E+00  0.000000000000E+00  1.862645149231E-09  5.000000000000E+00
     4.392000000000E+05  4.000000000000E+00  1.526000000000E+03  1.526000000000E+03
27 16  1  1  6  0  0.0  4.940479993820E-05  3.410605131648E-12  0.000000000000E+00
     6.000000000000E+00 -1.812500000000E+00  4.591976988559E-09  2.018957457773E+00
    -2.793967723846E-08  2.929495298304E-03  5.170702934265E-06  5.153711559296E+03
     4.536000000000E+05 -3.725290298462E-08 -5.868592354428E-01  7.450580596924E-08
     9.698906244776E-01  2.842187500000E+02  2.325930904930E-01 -8.205698943155E-09
     1.792931825664E-10  1.000000000000E+00  1.877000000000E+03  0.000000000000E+00
     2.400000000000E+00  0.000000000000E+00  1.862645149231E-09  6.000000000000E+00
     4.464000000000E+05  4.000000000000E+00  1.535000000000E+03  1.535000000000E+03
27 16  1  1  8  0  0.0  4.942901432514E-05  3.410605131648E-12  0.000000000000E+00
     8.000000000000E+00  1.281250000000E+00  4.542689221240E-09  3.069234511994E+00
     1.266598701477E-07  2.929911599495E-03  5.347654223442E-06  5.153710533142E+03
     4.608000000000E+05 -1.490116119385E-08 -5.869182071334E-01 -4.284083843231E-08
     9.698924867723E-01  2.819687500000E+02  2.324746994587E-01 -8.108552039454E-09
     2.182233755938E-10  1.000000000000E+00  1.877000000000E+03  0.000000000000E+00
     2.400000000000E+00  0.000000000000E+00  1.862645149231E-09  8.000000000000E+00
     4.536000000000E+05  4.000000000000E+00  2.340000000000E+02  2.340000000000E+02
27 16  1  1 10  0  0.0  4.945369437337E-05  3.410605131648E-12  0.000000000000E+00
     1.300000000000E+01 -1.468750000000E+00  4.523402703593E-09 -2.163829307673E+00
    -1.601874828339E-07  2.930331276730E-03  5.472451448441E-06  5.153709733963E+03
     4.680000000000E+05 -1.303851604462E-08 -5.869766697287E-01 -4.284083843231E-08
     9.698940345396E-01  2.800937500000E+02  2.325120828672E-01 -8.117838140543E-09
     2.250093725435E-10  1.000000000000E+00  1.877000000000E+03  0.000000000000E+00
     2.400000000000E+00  0.000000000000E+00  1.862645149231E-09  1.300000000000E+01
     4.608000000000E+05  4.000000000000E+00  2.090000000000E+02  2.090000000000E+02
27 16  1  1 12  0  0.0  4.947790876031E-05  3.410605131648E-12  0.000000000000E+00
     3.200000000000E+01 -5.718750000000E+00  4.463400204248E-09 -1.113178852390E+00
    -3.483146429062E-07  2.930302871391E-03  5.865469574928E-06  5.153712459564E+03
     4.752000000000E+05  2.421438694000E-08 -5.870351864518E-01 -2.607703208923E-08
     9.698957227471E-01  2.707187500000E+02  2.320196002734E-01 -8.127481399366E-09
     2.321525272275E-10  1.000000000000E+00  1.877000000000E+03  0.000000000000E+00
     2.400000000000E+00  0.000000000000E+00  1.862645149231E-09  3.200000000000E+01
     4.680000000000E+05  4.000000000000E+00  1.260000000000E+02  1.260000000000E+02
27 16  1  1 14  0  0.0  4.950258880854E-05  3.410605131648E-12  0.000000000000E+00
     4.300000000000E+01 -8.375000000000E+00  4.453399787691E-09 -6.294234879576E-02
    -4.246830940247E-07  2.930353861302E-03  5.930662155151E-06  5.153712791443E+03
     4.824000000000E+05  2.048909664154E-08 -5.870937265817E-01  1.862645149231E-09
     9.698972895323E-01  2.699375000000E+02  2.319395084344E-01 -8.145696443810E-09
     2.239378993409E-10  1.000000000000E+00  1.877000000000E+03  0.000000000000E+00
     2.400000000000E+00  0.000000000000E+00  1.862645149231E-09  4.300000000000E+01
     4.752000000000E+05  4.000000000000E+00  1.540000000000E+02  1.540000000000E+02
27 16  1  1 16  0  0.0  4.952680319548E-05  3.410605131648E-12  0.000000000000E+00
     4.400000000000E+01 -3.812500000000E+00  4.424470011221E-09  9.870797363588E-01
    -2.477318048477E-07  2.930827555247E-03  5.986541509628E-06  5.153713928223E+03
     4.896000000000E+05  5.029141902924E-08 -5.871524115404E-01 -5.587935447693E-09
     9.698989221489E-01  2.686562500000E+02  2.320737136131E-01 -8.149982336620E-09
     2.342954736326E-10  1.000000000000E+00  1.877000000000E+03  0.000000000000E+00
     2.400000000000E+00  0.000000000000E+00  1.862645149231E-09  4.400000000000E+01
     4.837800000000E+05  4.000000000000E+00  1.108000000000E+03  1.108000000000E+03
27 16  1  1 18  0  0.0  4.955148324370E-05  3.410605131648E-12  0.000000000000E+00
     4.500000000000E+01  9.375000000000E-01  4.413755279195E-09  2.037469815630E+00
     1.862645149231E-08  2.931009745225E-03  5.729496479034E-06  5.153712654114E+03
     4.968000000000E+05 -3.725290298462E-09 -5.872112544943E-01  3.352761268616E-08
     9.699007507965E-01  2.720312500000E+02  2.318394550782E-01 -8.133553080847E-09
     2.750114553310E-10  1.000000000000E+00  1.877000000000E+03  0.000000000000E+00
     2.400000000000E+00  0.000000000000E+00  1.862645149231E-09  4.500000000000E+01
     4.896000000000E+05  4.000000000000E+00  1.526000000000E+03  1.526000000000E+03
27 16  1  1 20  0  0.0  4.957569763064E-05  3.410605131648E-12  0.000000000000E+00
     4.600000000000E+01  4.218750000000E+00  4.343395205559E-09  3.087742429895E+00
     3.036111593246E-07  2.931332681328E-03  5.967915058136E-06  5.153711782455E+03
     5.040000000000E+05  2.607703208923E-08 -5.872697434221E-01 -2.607703208923E-08
     9.699030607442E-01  2.706562500000E+02  2.317234178790E-01 -8.074264896971E-09
     2.939408152434E-10  1.000000000000E+00  1.877000000000E+03  0.000000000000E+00
     2.400000000000E+00  0.000000000000E+00  1.862645149231E-09  4.600000000000E+01
     4.968000000000E+05  4.000000000000E+00  1.459000000000E+03  1.459000000000E+03
27 16  1  1 22  0  0.0  4.960037767887E-05  3.410605131648E-12  0.000000000000E+00
     5.500000000000E+01 -2.812500000000E-01  4.314465429089E-09 -2.145373749074E+00
     4.470348358154E-08  2.931924886070E-03  6.059184670448E-06  5.153710573196E+03
     5.112000000000E+05 -5.401670932770E-08 -5.873272902305E-01  5.029141902924E-08
     9.699052390292E-01  2.693125000000E+02  2.318107614030E-01 -8.005690612005E-09
     2.360812623036E-10  1.000000000000E+00  1.877000000000E+03  0.000000000000E+00
     2.400000000000E+00  0.000000000000E+00  1.862645149231E-09  5.500000000000E+01
     5.040000000000E+05  4.000000000000E+00  1.280000000000E+03  1.280000000000E+03
